[{"OBJECT_NAME":"STARLINK-30939","OBJECT_ID":"2023-178V","EPOCH":"2026-03-09T23:17:11.646816","MEAN_MOTION":15.3017535,"ECCENTRICITY":9.023e-5,"INCLINATION":53.1615,"RA_OF_ASC_NODE":359.8204,"ARG_OF_PERICENTER":65.0576,"MEAN_ANOMALY":295.0518,"EPHEMERIS_TYPE":0,"CLASSIFICATION_TYPE":"U","NORAD_CAT_ID":58393,"ELEMENT_SET_NO":999,"REV_AT_EPOCH":12980,"BSTAR":0.00011407549,"MEAN_MOTION_DOT":3.019e-5,"MEAN_MOTION_DDOT":0},{"OBJECT_NAME":"SCS-01 M","OBJECT_ID":"2025-100M","EPOCH":"2026-03-09T23:50:15.541152","MEAN_MOTION":15.31880861,"ECCENTRICITY":0.00078021,"INCLINATION":97.3725,"RA_OF_ASC_NODE":145.6908,"ARG_OF_PERICENTER":292.3826,"MEAN_ANOMALY":67.6588,"EPHEMERIS_TYPE":0,"CLASSIFICATION_TYPE":"U","NORAD_CAT_ID":63993,"ELEMENT_SET_NO":999,"REV_AT_EPOCH":4565,"BSTAR":0.0012010051,"MEAN_MOTION_DOT":0.00037061,"MEAN_MOTION_DDOT":0}]
